#aV2022  8  8  0  0  0.00000000     288 DD+AD WGS84 FIT  NGA
## 2222  86400.00000000   300.00000000 59799 0.0000000000000
+   32     1  2  3  4  5  6  7  8  9 10 11 12 13 14 15 16 17
+         18 19 20 21 22 23 24 25 26 27 28 29 30 31 32  0  0
+          0  0  0  0  0  0  0  0  0  0  0  0  0  0  0  0  0
+          0  0  0  0  0  0  0  0  0  0  0  0  0  0  0  0  0
+          0  0  0  0  0  0  0  0  0  0  0  0  0  0  0  0  0
++         2  2  2  2  2  2  2  2  2  2  2  2  2  2  2  2  2
++         2  2  2  2  2  2  2  2  2  2  2  2  2  2  2  0  0
++         0  0  0  0  0  0  0  0  0  0  0  0  0  0  0  0  0
++         0  0  0  0  0  0  0  0  0  0  0  0  0  0  0  0  0
++         0  0  0  0  0  0  0  0  0  0  0  0  0  0  0  0  0
%c cc cc ccc ccc cccc cccc cccc cccc ccccc ccccc ccccc ccccc
%c cc cc ccc ccc cccc cccc cccc cccc ccccc ccccc ccccc ccccc
%f  0.0000000  0.000000000  0.00000000000  0.000000000000000
%f  0.0000000  0.000000000  0.00000000000  0.000000000000000
%i    0    0    0    0      0      0      0      0         0
%i    0    0    0    0      0      0      0      0         0
/*      NGA, ST. LOUIS,MO.                                  
/*   EPHEMERIS COMPUTED FROM 2 DAYS OF DATA                 
/*   EPOCHA v8 SMOOTHER                                     
/*   G2139 IERS2010 SATIGS SATAPC                           
*  2022  8  8  2 55  0.00000000
P  1 -21991.705547 -14515.031277  -4885.614578    306.169339                    
V  1   5840.211754   1133.150292 -31339.742035     -0.071076                    
P  2   9340.727883  17273.752290  18461.245123   -649.663856                    
V  2 -21201.212746  -6689.356785  17760.192564      0.009475                    
P  3 -12134.471082 -17441.440944  15884.143354   -326.792377                    
V  3     51.499213 -20382.190697 -22062.694297     -0.087527                    
P  4 -14953.910801  -7548.476556  20639.390781   -135.913126                    
V  4  21631.265862 -14749.633160  10189.332853      0.049719                    
P  5   6395.946631  25282.239602  -4806.089699    -92.073552                    
V  5  -2092.043585   6198.613269  31085.008639     -0.014074                    
P  6 -10885.641167  10708.447049  21802.324233    416.761308                    
V  6 -24540.525707 -12307.695062  -6152.517882      0.145254                    
P  7 -24537.960423  -4415.512192  -9417.508341    315.748518                    
V  7 -10057.426416  -7713.309082  28072.653154     -0.020214                    
P  8  -7589.118202 -13206.462300 -21781.609666    -79.554223                    
V  8  22585.096128 -15827.810343   2076.562631     -0.016062                    
P  9 -22042.653911   3203.349268  14425.642640   -310.622475                    
V  9  13704.161596 -12537.920359  23569.686517      0.041880                    
P 10  11799.045362 -14015.910657 -18967.988590   -520.268621                    
V 10   3306.480301  24281.204201 -16055.641732     -0.134204                    
P 11   1880.706052  17080.481371  20255.529980    -10.740671                    
V 11 -23040.413065 -11462.889376  11773.238941     -0.007077                    
P 12   9964.514507  19886.048347  14330.731180   -258.864643                    
V 12  -1851.341144  18607.078089 -23987.237923     -0.059496                    
P 13  -2892.932087  17028.468001 -20285.807519    363.737462                    
V 13 -23198.818953  10467.553877  12368.606131      0.072363                    
P 14 -13350.373002  12217.034040 -19400.242936   -110.030576                    
V 14  -2402.562579 -24634.370020 -13958.606844      0.013039                    
P 15   9504.950148  12998.939652 -21534.830142    -39.044492                    
V 15 -19961.796295  17417.995234   2045.573838      0.030487                    
P 16    519.736047 -26298.286022    258.192497   -519.474415                    
V 16   2973.498975    698.848166  32221.347091     -0.017630                    
P 17 -22818.757386  13642.305261     16.877536    645.992362                    
V 17   -708.716577  -2167.749785 -32103.070272      0.041977                    
P 18  24075.139602   3968.258221 -10660.081114     88.751073                    
V 18  11098.460274   7888.388971  27902.716243     -0.119581                    
P 19 -18709.463781  16536.891586   8439.888135    194.281850                    
V 19 -10909.428140   3181.522860 -29780.456402      0.050318                    
P 20   -149.344912  25325.338282   8385.676472    496.612843                    
V 20  -5297.867126  -9629.255688  28773.639008     -0.031387                    
P 21 -17379.701603 -15884.235160 -12336.222500    160.662183                    
V 21  16032.592860   3990.148798 -25699.236619     -0.002757                    
P 22  15926.106773 -18135.278860  11303.018680    306.046182                    
V 22  13170.874079  -4725.350962 -27320.643733      0.065931                    
P 23  14812.355273  -2667.689830 -21892.977710    -36.116399                    
V 23   3057.578264  27576.446991  -1407.584256     -0.013648                    
P 24  20410.464120  14967.204447  -9029.322823    174.854603                    
V 24 -11282.002155  -1182.527489 -28027.565641     -0.111490                    
P 25  15099.949797   7010.923743  20466.312199    358.352837                    
V 25   1394.794287  26571.559462  -9726.620200      0.043120                    
P 26   4682.496882 -23682.565434  10626.822319    222.552858                    
V 26   5187.458793  13201.035868  27228.321063      0.019737                    
P 27   5571.391965 -18743.144125 -18003.832055    220.108001                    
V 27  19484.266740 -11465.020279  18564.963088     -0.012324                    
P 28  -9462.674647  20793.499618 -13234.690205    339.766808                    
V 28  -1770.184709 -17578.658397 -25155.496983      0.014715                    
P 29  22103.287187  -1443.728274  14666.641447   -540.859186                    
V 29 -15325.043903  10729.487779  23991.886477     -0.033323                    
P 30 -19375.669461   4807.370318 -17547.642885   -535.525213                    
V 30 -19232.204138 -11743.080179  17670.866509     -0.006313                    
P 31   9078.542327 -12476.854673  21508.937216   -188.825762                    
V 31  24597.952551  12577.836977  -2610.680337     -0.014172                    
P 32  20878.650778 -16153.095197   1884.637978   -197.791579                    
V 32   3562.840155   1215.285827 -31717.159594     -0.105005                    
EOF
